STARLINK-1777
1 47122U 20088A   26061.11465472  .00085326  00000+0  14873-2 0  9997
2 47122  53.0549 320.0886 0001293 164.4635 195.6413 15.50026762290919
